[{"OBJECT_NAME":"STARLINK-4285","OBJECT_ID":"2022-076F","EPOCH":"2026-03-09T19:20:58.272000","MEAN_MOTION":15.08837128,"ECCENTRICITY":0.0001279,"INCLINATION":53.217,"RA_OF_ASC_NODE":103.5964,"ARG_OF_PERICENTER":90.2691,"MEAN_ANOMALY":269.8448,"EPHEMERIS_TYPE":0,"CLASSIFICATION_TYPE":"U","NORAD_CAT_ID":52991,"ELEMENT_SET_NO":999,"REV_AT_EPOCH":20272,"BSTAR":4.7943329e-5,"MEAN_MOTION_DOT":4.75e-6,"MEAN_MOTION_DDOT":0},{"OBJECT_NAME":"OBJECT T","OBJECT_ID":"2018-099T","EPOCH":"2026-03-09T14:32:29.418720","MEAN_MOTION":15.09436097,"ECCENTRICITY":0.0004517,"INCLINATION":97.4347,"RA_OF_ASC_NODE":115.9313,"ARG_OF_PERICENTER":320.9739,"MEAN_ANOMALY":39.1164,"EPHEMERIS_TYPE":0,"CLASSIFICATION_TYPE":"U","NORAD_CAT_ID":43775,"ELEMENT_SET_NO":999,"REV_AT_EPOCH":39729,"BSTAR":0.00032877,"MEAN_MOTION_DOT":5.2e-5,"MEAN_MOTION_DDOT":0}]
